STARLINK-33608          
1 63425U 25065AC  26143.97782961  .00013206  00000+0  48839-3 0  9999
2 63425  43.0056  41.8721 0001578 254.8075 105.2602 15.27591990 64357
STARLINK-33615          
1 63426U 25065AD  26143.99968138  .00022536  00000+0  82585-3 0  9996
2 63426  42.9990  42.0511 0001320 278.6668  81.4034 15.27584040 64352
HJS-6B                  
1 63429U 25067B   26144.18193462  .00004104  00000+0  17526-3 0  9997
2 63429  54.9892 133.1415 0004413 278.2564  81.7957 15.25071586 64284
HJS-6C                  
1 63430U 25067C   26144.18079010  .00004162  00000+0  17757-3 0  9991
2 63430  54.9903 133.1620 0004564 270.4821  89.5678 15.25072045 64270
HJS-6D                  
1 63431U 25067D   26144.18293113  .00000432  00000+0  30211-4 0  9991
2 63431  54.9892 133.1644 0002607 275.1943  84.8782 15.25108050 64277
TIANPING-3A 02          
1 63432U 25068A   26144.14987924  .00002175  00000+0  16755-3 0  9991
2 63432  42.9990 174.4540 0229352  94.9690 267.7369 14.86343397 61801
STARLINK-33682          
1 63433U 25069A   26144.03653574  .00025508  00000+0  59277-3 0  9993
2 63433  53.1580 150.1603 0001123  77.4429 282.6703 15.42205328 64975
STARLINK-33710          
1 63434U 25069B   26144.03966397  .00030046  00000+0  69650-3 0  9993
2 63434  53.1566 150.1819 0002053  87.0692 273.0549 15.42188612 64979
STARLINK-33733          
1 63435U 25069C   26144.03677971  .00028301  00000+0  65690-3 0  9992
2 63435  53.1584 150.1617 0001307  94.1579 265.9576 15.42182983 64975
STARLINK-33638          
1 63436U 25069D   26143.71619001  .00017478  00000+0  41000-3 0  9999
2 63436  53.1584 151.7138 0001172  89.3019 270.8122 15.42171726 64926
STARLINK-33726          
1 63437U 25069E   26143.31714989  .00027175  00000+0  63134-3 0  9994
2 63437  53.1578 153.4897 0001125  79.2991 280.8142 15.42177765 64816
STARLINK-33681          
1 63438U 25069F   26144.02870361  .00040975  00000+0  94531-3 0  9999
2 63438  53.1582 150.1095 0001258  78.6157 281.4990 15.42182430 64970
STARLINK-33730          
1 63439U 25069G   26143.99801600  .00025827  00000+0  60061-3 0  9995
2 63439  53.1590 149.9203 0001326  82.7023 277.4133 15.42176270 64970
STARLINK-33743          
1 63440U 25069H   26143.31655719  .00029953  00000+0  69490-3 0  9990
2 63440  53.1576 153.4803 0001195  66.1806 293.9325 15.42167621 64753
STARLINK-33715          
1 63441U 25069J   26143.31520007  .00021647  00000+0  50557-3 0  9998
2 63441  53.1588 153.4684 0001048  78.0408 282.0716 15.42154667 64862
STARLINK-33762          
1 63442U 25069K   26144.02777828  .00037782  00000+0  87252-3 0  9992
2 63442  53.1589 150.1044 0000973  74.3378 285.7735 15.42189622 64971
STARLINK-33753          
1 63443U 25069L   26143.75618543  .00008579  00000+0  20623-3 0  9991
2 63443  53.1593 151.2492 0001498  92.1967 267.9210 15.42181480 64920
STARLINK-33747          
1 63444U 25069M   26144.00711296  .00039237  00000+0  90590-3 0  9995
2 63444  53.1582 149.9720 0002107  88.1185 272.0062 15.42178767 64917
STARLINK-33659          
1 63445U 25069N   26143.98669231  .00028135  00000+0  65307-3 0  9996
2 63445  53.1585 150.5586 0001268  92.1160 267.9991 15.42185242 64914
STARLINK-33746          
1 63446U 25069P   26144.15473972  .00037749  00000+0  87226-3 0  9997
2 63446  53.1573 149.4700 0000745  25.5866 334.5177 15.42172685 64946
STARLINK-33799          
1 63447U 25069Q   26144.01580821  .00017723  00000+0  60894-3 0  9997
2 63447  53.1590 152.8636 0001406  94.9838 265.1324 15.30206638 64829
STARLINK-33797          
1 63448U 25069R   26143.74909317  .00025025  00000+0  58257-3 0  9996
2 63448  53.1588 151.2058 0000890 110.3749 249.7353 15.42163731 64872
STARLINK-33798          
1 63449U 25069S   26143.72717716  .00037231  00000+0  86079-3 0  9990
2 63449  53.1586 151.7642 0001270  86.7956 273.3195 15.42162352 64655
STARLINK-33736          
1 63450U 25069T   26144.00554944  .00041234  00000+0  95090-3 0  9997
2 63450  53.1585 149.9590 0001789 108.2437 251.8764 15.42191466 64927
STARLINK-33740          
1 63451U 25069U   26144.03279874  .00031354  00000+0  72627-3 0  9990
2 63451  53.1589 150.1276 0000915  61.2010 298.9088 15.42190418 64862
STARLINK-33763          
1 63452U 25069V   26144.00172539  .00036717  00000+0  84839-3 0  9994
2 63452  53.1600 149.9248 0001544  94.6795 265.4387 15.42186785 64976
STARLINK-33784          
1 63453U 25069W   26144.01476666  .00014033  00000+0  48478-3 0  9990
2 63453  53.1593 152.8557 0001471  99.5931 260.5236 15.30215906 64939
STARLINK-33768          
1 63454U 25069X   26144.01515310  .00039630  00000+0  91487-3 0  9999
2 63454  53.1592 150.0050 0001621 105.5648 254.5537 15.42178097 64969
STARLINK-33761          
1 63455U 25069Y   26144.01305315  .00025363  00000+0  59006-3 0  9991
2 63455  53.1599 149.9962 0001476  91.5899 268.5276 15.42175458 64970
STARLINK-33737          
1 63456U 25069Z   26144.01473572  .00027121  00000+0  63019-3 0  9996
2 63456  53.1597 149.9988 0001451  85.2695 274.8476 15.42173073 64865
