OBJECT_NAME,OBJECT_ID,EPOCH,MEAN_MOTION,ECCENTRICITY,INCLINATION,RA_OF_ASC_NODE,ARG_OF_PERICENTER,MEAN_ANOMALY,EPHEMERIS_TYPE,CLASSIFICATION_TYPE,NORAD_CAT_ID,ELEMENT_SET_NO,REV_AT_EPOCH,BSTAR,MEAN_MOTION_DOT,MEAN_MOTION_DDOT
STARLINK-33608,2025-065AC,2026-05-23T23:28:04.478304,15.27591990,.0001578,43.0056,41.8721,254.8075,105.2602,0,U,63425,999,6435,.48839E-3,.13206E-3,0
STARLINK-33615,2025-065AD,2026-05-23T23:59:32.471232,15.27584040,.000132,42.9990,42.0511,278.6668,81.4034,0,U,63426,999,6435,.82585E-3,.22536E-3,0
HJS-6B,2025-067B,2026-05-24T04:21:59.151168,15.25071586,.0004413,54.9892,133.1415,278.2564,81.7957,0,U,63429,999,6428,.17526E-3,.4104E-4,0
HJS-6C,2025-067C,2026-05-24T04:20:20.264640,15.25072045,.0004564,54.9903,133.1620,270.4821,89.5678,0,U,63430,999,6427,.17757E-3,.4162E-4,0
HJS-6D,2025-067D,2026-05-24T04:23:25.249632,15.25108050,.0002607,54.9892,133.1644,275.1943,84.8782,0,U,63431,999,6427,.30211E-4,.432E-5,0
TIANPING-3A 02,2025-068A,2026-05-24T03:35:49.566336,14.86343397,.0229352,42.9990,174.4540,94.9690,267.7369,0,U,63432,999,6180,.16755E-3,.2175E-4,0
STARLINK-33682,2025-069A,2026-05-24T00:52:36.687936,15.42205328,.0001123,53.1580,150.1603,77.4429,282.6703,0,U,63433,999,6497,.59277E-3,.25508E-3,0
STARLINK-33710,2025-069B,2026-05-24T00:57:06.967008,15.42188612,.0002053,53.1566,150.1819,87.0692,273.0549,0,U,63434,999,6497,.6965E-3,.30046E-3,0
STARLINK-33733,2025-069C,2026-05-24T00:52:57.766944,15.42182983,.0001307,53.1584,150.1617,94.1579,265.9576,0,U,63435,999,6497,.6569E-3,.28301E-3,0
STARLINK-33638,2025-069D,2026-05-23T17:11:18.816864,15.42171726,.0001172,53.1584,151.7138,89.3019,270.8122,0,U,63436,999,6492,.41E-3,.17478E-3,0
STARLINK-33726,2025-069E,2026-05-23T07:36:41.750496,15.42177765,.00011252,53.1578,153.4897,79.2991,280.8142,0,U,63437,999,6481,.63134239E-3,.27175E-3,0
STARLINK-33681,2025-069F,2026-05-24T00:41:19.991904,15.42182430,.0001258,53.1582,150.1095,78.6157,281.4990,0,U,63438,999,6497,.94531E-3,.40975E-3,0
STARLINK-33730,2025-069G,2026-05-23T23:57:08.582400,15.42176270,.0001326,53.1590,149.9203,82.7023,277.4133,0,U,63439,999,6497,.60061E-3,.25827E-3,0
STARLINK-33743,2025-069H,2026-05-23T07:35:50.541216,15.42167621,.00011954,53.1576,153.4803,66.1806,293.9325,0,U,63440,999,6475,.69490088E-3,.29953E-3,0
STARLINK-33715,2025-069J,2026-05-23T07:33:53.286048,15.42154667,.00010485,53.1588,153.4684,78.0408,282.0716,0,U,63441,999,6486,.50557433E-3,.21647E-3,0
STARLINK-33762,2025-069K,2026-05-24T00:40:00.043392,15.42189622,.0000973,53.1589,150.1044,74.3378,285.7735,0,U,63442,999,6497,.87252E-3,.37782E-3,0
STARLINK-33753,2025-069L,2026-05-23T18:08:54.421152,15.42181480,.0001498,53.1593,151.2492,92.1967,267.9210,0,U,63443,999,6492,.20623E-3,.8579E-4,0
STARLINK-33747,2025-069M,2026-05-24T00:10:14.559744,15.42178767,.0002107,53.1582,149.9720,88.1185,272.0062,0,U,63444,999,6491,.9059E-3,.39237E-3,0
STARLINK-33659,2025-069N,2026-05-23T23:40:50.215584,15.42185242,.0001268,53.1585,150.5586,92.1160,267.9991,0,U,63445,999,6491,.65307E-3,.28135E-3,0
STARLINK-33746,2025-069P,2026-05-24T03:42:49.511808,15.42172685,.0000745,53.1573,149.4700,25.5866,334.5177,0,U,63446,999,6494,.87226E-3,.37749E-3,0
STARLINK-33799,2025-069Q,2026-05-24T00:22:45.829344,15.30206638,.0001406,53.1590,152.8636,94.9838,265.1324,0,U,63447,999,6482,.60894E-3,.17723E-3,0
STARLINK-33797,2025-069R,2026-05-23T17:58:41.649888,15.42163731,.000089,53.1588,151.2058,110.3749,249.7353,0,U,63448,999,6487,.58257E-3,.25025E-3,0
STARLINK-33798,2025-069S,2026-05-23T17:27:08.106624,15.42162352,.000127,53.1586,151.7642,86.7956,273.3195,0,U,63449,999,6465,.86079E-3,.37231E-3,0
STARLINK-33736,2025-069T,2026-05-24T00:07:59.471616,15.42191466,.0001789,53.1585,149.9590,108.2437,251.8764,0,U,63450,999,6492,.9509E-3,.41234E-3,0
STARLINK-33740,2025-069U,2026-05-24T00:47:13.811136,15.42190418,.0000915,53.1589,150.1276,61.2010,298.9088,0,U,63451,999,6486,.72627E-3,.31354E-3,0
STARLINK-33763,2025-069V,2026-05-24T00:02:29.073696,15.42186785,.0001544,53.1600,149.9248,94.6795,265.4387,0,U,63452,999,6497,.84839E-3,.36717E-3,0
STARLINK-33784,2025-069W,2026-05-24T00:21:15.839424,15.30215906,.0001471,53.1593,152.8557,99.5931,260.5236,0,U,63453,999,6493,.48478E-3,.14033E-3,0
STARLINK-33768,2025-069X,2026-05-24T00:21:49.227840,15.42178097,.0001621,53.1592,150.0050,105.5648,254.5537,0,U,63454,999,6496,.91487E-3,.3963E-3,0
STARLINK-33761,2025-069Y,2026-05-24T00:18:47.792160,15.42175458,.0001476,53.1599,149.9962,91.5899,268.5276,0,U,63455,999,6497,.59006E-3,.25363E-3,0
STARLINK-33737,2025-069Z,2026-05-24T00:21:13.166208,15.42173073,.0001451,53.1597,149.9988,85.2695,274.8476,0,U,63456,999,6486,.63019E-3,.27121E-3,0
